ONEWEB-0142             
1 47288U 20100AG  26063.40626914 -.00000214  00000+0 -63015-3 0  9997
2 47288  87.8998  11.4651 0002165  75.2531 284.8837 13.12442754250926
ONEWEB-0143             
1 47289U 20100AH  26064.10241670 -.00000356  00000+0 -10256-2 0  9993
2 47289  87.8997  11.3237 0001807  78.8128 281.3204 13.12442044250997
ONEWEB-0144             
1 47290U 20100AJ  26063.84489622  .00001250  00000+0  34381-2 0  9993
2 47290  87.9000  11.3441 0002324  82.3350 277.8043 13.12452275250880
ONEWEB-0145             
1 47291U 20100AK  26063.81610905 -.00000102  00000+0 -31921-3 0  9996
2 47291  87.8998  11.3884 0001919  80.4446 279.6899 13.12442463251070
ONEWEB-0146             
1 47292U 20100AL  26063.35527872 -.00000150  00000+0 -45349-3 0  9998
2 47292  87.8999  11.4647 0001494  82.0477 278.0821 13.12443195250924
ONEWEB-0147             
1 47293U 20100AM  26063.77884299  .00000072  00000+0  16391-3 0  9990
2 47293  87.9002  11.3602 0001893  87.6546 272.4799 13.12441371250872
ONEWEB-0115             
1 48042U 21025A   26063.27916678  .00000142  00000+0  35354-3 0  9990
2 48042  87.9049 341.0832 0001677  79.2755 280.8563 13.13470093239821
ONEWEB-0152             
1 48043U 21025B   26064.13066264  .00000360  00000+0  95182-3 0  9991
2 48043  87.9043 340.9164 0001604  79.4121 280.7189 13.13469802239897
ONEWEB-0153             
1 48044U 21025C   26063.27070357 -.00000088  00000+0 -27473-3 0  9991
2 48044  87.9041 341.0921 0001826  77.5945 282.5388 13.13470232239775
ONEWEB-0154             
1 48045U 21025D   26064.18144413 -.00000221  00000+0 -63955-3 0  9992
2 48045  87.9042 340.9093 0001722  82.0851 278.0474 13.13471124239853
ONEWEB-0116             
1 48046U 21025E   26064.14420644  .00000314  00000+0  82487-3 0  9994
2 48046  87.9051 340.9043 0001580  82.5967 277.5341 13.13469118239996
ONEWEB-0150             
1 48047U 21025F   26064.12050543  .00000094  00000+0  22291-3 0  9992
2 48047  87.9049 340.9062 0001752  71.6227 288.5092 13.13470050239884
ONEWEB-0107             
1 48048U 21025G   26064.12219655  .00000186  00000+0  47470-3 0  9992
2 48048  87.9047 340.9014 0002001  76.5154 283.6198 13.13469947239865
ONEWEB-0101             
1 48049U 21025H   26064.16113683 -.00000044  00000+0 -15661-3 0  9993
2 48049  87.9040 340.9197 0001837  79.1279 281.0057 13.13468890239844
ONEWEB-0113             
1 48050U 21025J   26064.14545517 -.00000984  00000+0 -27114-2 0  9996
2 48050  87.9054 340.8441 0001522  85.9872 274.1432 13.13962117239949
ONEWEB-0112             
1 48051U 21025K   26064.12727802  .00000451  00000+0  11990-2 0  9996
2 48051  87.9051 340.8980 0001928  85.7022 274.4327 13.13472315239931
ONEWEB-0156             
1 48052U 21025L   26064.13574416  .00000309  00000+0  81228-3 0  9993
2 48052  87.9049 340.9072 0001813  78.0258 282.1074 13.13469114239917
