[{"OBJECT_NAME":"ONEWEB-0142","OBJECT_ID":"2020-100AG","EPOCH":"2026-03-04T09:45:01.653696","MEAN_MOTION":13.12442754,"ECCENTRICITY":0.00021655,"INCLINATION":87.8998,"RA_OF_ASC_NODE":11.4651,"ARG_OF_PERICENTER":75.2531,"MEAN_ANOMALY":284.8837,"EPHEMERIS_TYPE":0,"CLASSIFICATION_TYPE":"U","NORAD_CAT_ID":47288,"ELEMENT_SET_NO":999,"REV_AT_EPOCH":25092,"BSTAR":-0.00063015194,"MEAN_MOTION_DOT":-2.14e-6,"MEAN_MOTION_DDOT":0},{"OBJECT_NAME":"ONEWEB-0143","OBJECT_ID":"2020-100AH","EPOCH":"2026-03-05T02:27:28.802880","MEAN_MOTION":13.12442044,"ECCENTRICITY":0.0001807,"INCLINATION":87.8997,"RA_OF_ASC_NODE":11.3237,"ARG_OF_PERICENTER":78.8128,"MEAN_ANOMALY":281.3204,"EPHEMERIS_TYPE":0,"CLASSIFICATION_TYPE":"U","NORAD_CAT_ID":47289,"ELEMENT_SET_NO":999,"REV_AT_EPOCH":25099,"BSTAR":-0.0010256,"MEAN_MOTION_DOT":-3.56e-6,"MEAN_MOTION_DDOT":0},{"OBJECT_NAME":"ONEWEB-0144","OBJECT_ID":"2020-100AJ","EPOCH":"2026-03-04T20:16:39.033408","MEAN_MOTION":13.12452275,"ECCENTRICITY":0.0002324,"INCLINATION":87.9,"RA_OF_ASC_NODE":11.3441,"ARG_OF_PERICENTER":82.335,"MEAN_ANOMALY":277.8043,"EPHEMERIS_TYPE":0,"CLASSIFICATION_TYPE":"U","NORAD_CAT_ID":47290,"ELEMENT_SET_NO":999,"REV_AT_EPOCH":25088,"BSTAR":0.0034381,"MEAN_MOTION_DOT":1.25e-5,"MEAN_MOTION_DDOT":0},{"OBJECT_NAME":"ONEWEB-0145","OBJECT_ID":"2020-100AK","EPOCH":"2026-03-04T19:35:11.821920","MEAN_MOTION":13.12442463,"ECCENTRICITY":0.0001919,"INCLINATION":87.8998,"RA_OF_ASC_NODE":11.3884,"ARG_OF_PERICENTER":80.4446,"MEAN_ANOMALY":279.6899,"EPHEMERIS_TYPE":0,"CLASSIFICATION_TYPE":"U","NORAD_CAT_ID":47291,"ELEMENT_SET_NO":999,"REV_AT_EPOCH":25107,"BSTAR":-0.00031921,"MEAN_MOTION_DOT":-1.02e-6,"MEAN_MOTION_DDOT":0},{"OBJECT_NAME":"ONEWEB-0146","OBJECT_ID":"2020-100AL","EPOCH":"2026-03-04T08:31:36.081408","MEAN_MOTION":13.12443195,"ECCENTRICITY":0.00014948,"INCLINATION":87.8999,"RA_OF_ASC_NODE":11.4647,"ARG_OF_PERICENTER":82.0477,"MEAN_ANOMALY":278.0821,"EPHEMERIS_TYPE":0,"CLASSIFICATION_TYPE":"U","NORAD_CAT_ID":47292,"ELEMENT_SET_NO":999,"REV_AT_EPOCH":25092,"BSTAR":-0.00045348752,"MEAN_MOTION_DOT":-1.5e-6,"MEAN_MOTION_DDOT":0},{"OBJECT_NAME":"ONEWEB-0147","OBJECT_ID":"2020-100AM","EPOCH":"2026-03-04T18:41:32.034336","MEAN_MOTION":13.12441371,"ECCENTRICITY":0.0001893,"INCLINATION":87.9002,"RA_OF_ASC_NODE":11.3602,"ARG_OF_PERICENTER":87.6546,"MEAN_ANOMALY":272.4799,"EPHEMERIS_TYPE":0,"CLASSIFICATION_TYPE":"U","NORAD_CAT_ID":47293,"ELEMENT_SET_NO":999,"REV_AT_EPOCH":25087,"BSTAR":0.00016391,"MEAN_MOTION_DOT":7.2e-7,"MEAN_MOTION_DDOT":0},{"OBJECT_NAME":"ONEWEB-0115","OBJECT_ID":"2021-025A","EPOCH":"2026-03-04T06:42:00.009792","MEAN_MOTION":13.13470093,"ECCENTRICITY":0.00016771,"INCLINATION":87.9049,"RA_OF_ASC_NODE":341.0832,"ARG_OF_PERICENTER":79.2755,"MEAN_ANOMALY":280.8563,"EPHEMERIS_TYPE":0,"CLASSIFICATION_TYPE":"U","NORAD_CAT_ID":48042,"ELEMENT_SET_NO":999,"REV_AT_EPOCH":23982,"BSTAR":0.00035354165,"MEAN_MOTION_DOT":1.42e-6,"MEAN_MOTION_DDOT":0},{"OBJECT_NAME":"ONEWEB-0152","OBJECT_ID":"2021-025B","EPOCH":"2026-03-05T03:08:09.252096","MEAN_MOTION":13.13469802,"ECCENTRICITY":0.0001604,"INCLINATION":87.9043,"RA_OF_ASC_NODE":340.9164,"ARG_OF_PERICENTER":79.4121,"MEAN_ANOMALY":280.7189,"EPHEMERIS_TYPE":0,"CLASSIFICATION_TYPE":"U","NORAD_CAT_ID":48043,"ELEMENT_SET_NO":999,"REV_AT_EPOCH":23989,"BSTAR":0.00095182,"MEAN_MOTION_DOT":3.6e-6,"MEAN_MOTION_DDOT":0},{"OBJECT_NAME":"ONEWEB-0153","OBJECT_ID":"2021-025C","EPOCH":"2026-03-04T06:29:48.788448","MEAN_MOTION":13.13470232,"ECCENTRICITY":0.00018261,"INCLINATION":87.9041,"RA_OF_ASC_NODE":341.0921,"ARG_OF_PERICENTER":77.5945,"MEAN_ANOMALY":282.5388,"EPHEMERIS_TYPE":0,"CLASSIFICATION_TYPE":"U","NORAD_CAT_ID":48044,"ELEMENT_SET_NO":999,"REV_AT_EPOCH":23977,"BSTAR":-0.00027472503,"MEAN_MOTION_DOT":-8.8e-7,"MEAN_MOTION_DDOT":0},{"OBJECT_NAME":"ONEWEB-0154","OBJECT_ID":"2021-025D","EPOCH":"2026-03-05T04:21:16.772832","MEAN_MOTION":13.13471124,"ECCENTRICITY":0.0001722,"INCLINATION":87.9042,"RA_OF_ASC_NODE":340.9093,"ARG_OF_PERICENTER":82.0851,"MEAN_ANOMALY":278.0474,"EPHEMERIS_TYPE":0,"CLASSIFICATION_TYPE":"U","NORAD_CAT_ID":48045,"ELEMENT_SET_NO":999,"REV_AT_EPOCH":23985,"BSTAR":-0.00063955,"MEAN_MOTION_DOT":-2.21e-6,"MEAN_MOTION_DDOT":0},{"OBJECT_NAME":"ONEWEB-0116","OBJECT_ID":"2021-025E","EPOCH":"2026-03-05T03:27:39.436416","MEAN_MOTION":13.13469118,"ECCENTRICITY":0.000158,"INCLINATION":87.9051,"RA_OF_ASC_NODE":340.9043,"ARG_OF_PERICENTER":82.5967,"MEAN_ANOMALY":277.5341,"EPHEMERIS_TYPE":0,"CLASSIFICATION_TYPE":"U","NORAD_CAT_ID":48046,"ELEMENT_SET_NO":999,"REV_AT_EPOCH":23999,"BSTAR":0.00082487,"MEAN_MOTION_DOT":3.14e-6,"MEAN_MOTION_DDOT":0},{"OBJECT_NAME":"ONEWEB-0150","OBJECT_ID":"2021-025F","EPOCH":"2026-03-05T02:53:31.669152","MEAN_MOTION":13.1347005,"ECCENTRICITY":0.0001752,"INCLINATION":87.9049,"RA_OF_ASC_NODE":340.9062,"ARG_OF_PERICENTER":71.6227,"MEAN_ANOMALY":288.5092,"EPHEMERIS_TYPE":0,"CLASSIFICATION_TYPE":"U","NORAD_CAT_ID":48047,"ELEMENT_SET_NO":999,"REV_AT_EPOCH":23988,"BSTAR":0.00022291,"MEAN_MOTION_DOT":9.4e-7,"MEAN_MOTION_DDOT":0},{"OBJECT_NAME":"ONEWEB-0107","OBJECT_ID":"2021-025G","EPOCH":"2026-03-05T02:55:57.781920","MEAN_MOTION":13.13469947,"ECCENTRICITY":0.0002001,"INCLINATION":87.9047,"RA_OF_ASC_NODE":340.9014,"ARG_OF_PERICENTER":76.5154,"MEAN_ANOMALY":283.6198,"EPHEMERIS_TYPE":0,"CLASSIFICATION_TYPE":"U","NORAD_CAT_ID":48048,"ELEMENT_SET_NO":999,"REV_AT_EPOCH":23986,"BSTAR":0.0004747,"MEAN_MOTION_DOT":1.86e-6,"MEAN_MOTION_DDOT":0},{"OBJECT_NAME":"ONEWEB-0101","OBJECT_ID":"2021-025H","EPOCH":"2026-03-05T03:52:02.222112","MEAN_MOTION":13.1346889,"ECCENTRICITY":0.0001837,"INCLINATION":87.904,"RA_OF_ASC_NODE":340.9197,"ARG_OF_PERICENTER":79.1279,"MEAN_ANOMALY":281.0057,"EPHEMERIS_TYPE":0,"CLASSIFICATION_TYPE":"U","NORAD_CAT_ID":48049,"ELEMENT_SET_NO":999,"REV_AT_EPOCH":23984,"BSTAR":-0.00015661,"MEAN_MOTION_DOT":-4.4e-7,"MEAN_MOTION_DDOT":0},{"OBJECT_NAME":"ONEWEB-0113","OBJECT_ID":"2021-025J","EPOCH":"2026-03-05T03:29:27.326688","MEAN_MOTION":13.13962117,"ECCENTRICITY":0.0001522,"INCLINATION":87.9054,"RA_OF_ASC_NODE":340.8441,"ARG_OF_PERICENTER":85.9872,"MEAN_ANOMALY":274.1432,"EPHEMERIS_TYPE":0,"CLASSIFICATION_TYPE":"U","NORAD_CAT_ID":48050,"ELEMENT_SET_NO":999,"REV_AT_EPOCH":23994,"BSTAR":-0.0027114,"MEAN_MOTION_DOT":-9.84e-6,"MEAN_MOTION_DDOT":0},{"OBJECT_NAME":"ONEWEB-0112","OBJECT_ID":"2021-025K","EPOCH":"2026-03-05T03:03:16.820928","MEAN_MOTION":13.13472315,"ECCENTRICITY":0.0001928,"INCLINATION":87.9051,"RA_OF_ASC_NODE":340.898,"ARG_OF_PERICENTER":85.7022,"MEAN_ANOMALY":274.4327,"EPHEMERIS_TYPE":0,"CLASSIFICATION_TYPE":"U","NORAD_CAT_ID":48051,"ELEMENT_SET_NO":999,"REV_AT_EPOCH":23993,"BSTAR":0.001199,"MEAN_MOTION_DOT":4.51e-6,"MEAN_MOTION_DDOT":0},{"OBJECT_NAME":"ONEWEB-0156","OBJECT_ID":"2021-025L","EPOCH":"2026-03-05T03:15:28.295424","MEAN_MOTION":13.13469114,"ECCENTRICITY":0.0001813,"INCLINATION":87.9049,"RA_OF_ASC_NODE":340.9072,"ARG_OF_PERICENTER":78.0258,"MEAN_ANOMALY":282.1074,"EPHEMERIS_TYPE":0,"CLASSIFICATION_TYPE":"U","NORAD_CAT_ID":48052,"ELEMENT_SET_NO":999,"REV_AT_EPOCH":23991,"BSTAR":0.00081228,"MEAN_MOTION_DOT":3.09e-6,"MEAN_MOTION_DDOT":0}]
